NORAD_CAT_ID,OBJECT_NAME,OBJECT_TYPE,EPOCH,MEAN_MOTION,ECCENTRICITY,INCLINATION,RA_OF_ASC_NODE,ARG_OF_PERICENTER,MEAN_ANOMALY,BSTAR,MEAN_MOTION_DOT,MEAN_MOTION_DDOT,TLE_LINE0,TLE_LINE1,TLE_LINE2,SEMIMAJOR_AXIS,PERIOD,APOGEE,PERIGEE,DECAYED
51773.0,STARLINK-3624,PAYLOAD,2022-12-26 19:17:23,15.08844776,0.0003184,53.2156,186.4468,39.1703,320.9519,2.3883e-05,9.1e-07,0.0,0 STARLINK-3624,1 51773U 22017F   22360.80373894  .00000091  00000-0  23883-4 0  9998,2 51773  53.2156 186.4468 0003184  39.1703 320.9519 15.08844776 47609,6917.866,95.437,541.933,537.528,0.0
51773.0,STARLINK-3624,PAYLOAD,2022-12-27 12:46:37,15.08849269,0.0003211,53.2158,183.1757,39.8597,320.2631,1.9803e-05,2.6e-07,0.0,0 STARLINK-3624,1 51773U 22017F   22361.53237298  .00000026  00000-0  19803-4 0  9991,2 51773  53.2158 183.1757 0003211  39.8597 320.2631 15.08849269 46255,6917.852,95.437,541.938,537.496,0.0
51773.0,STARLINK-3624,PAYLOAD,2022-12-27 15:57:23,15.08848648,0.0003218,53.2157,182.581,40.0501,320.0728,1.3805e-05,-6.9e-07,0.0,0 STARLINK-3624,1 51773U 22017F   22361.66485275 -.00000069  00000-0  13805-4 0  9999,2 51773  53.2157 182.5810 0003218  40.0501 320.0728 15.08848648 46270,6917.854,95.437,541.945,537.493,0.0
51773.0,STARLINK-3624,PAYLOAD,2022-12-28 12:37:25,15.08831091,0.0003251,53.2156,178.7154,40.9446,319.1789,-2.068e-05,-6.18e-06,0.0,0 STARLINK-3624,1 51773U 22017F   22362.52598401 -.00000618  00000-0 -20680-4 0  9991,2 51773  53.2156 178.7154 0003251  40.9446 319.1789 15.08831091 46406,6917.908,95.438,542.0219999999998,537.524,0.0
51773.0,STARLINK-3624,PAYLOAD,2022-12-28 14:12:48,15.08830565,0.0003251,53.2155,178.418,40.8972,319.2264,-2.714e-05,-7.21e-06,0.0,0 STARLINK-3624,1 51773U 22017F   22362.59222469 -.00000721  00000-0 -27140-4 0  9999,2 51773  53.2155 178.4180 0003251  40.8972 319.2264 15.08830565 47870,6917.909000000002,95.438,542.023,537.525,0.0
51773.0,STARLINK-3624,PAYLOAD,2022-12-29 04:31:16,15.08837848,0.0003203,53.2154,175.7419,41.435,318.6884,2.8029e-05,1.57e-06,0.0,0 STARLINK-3624,1 51773U 22017F   22363.18838045  .00000157  00000-0  28029-4 0  9996,2 51773  53.2154 175.7419 0003203  41.4350 318.6884 15.08837848 47960,6917.887,95.438,541.9680000000002,537.536,0.0
51773.0,STARLINK-3624,PAYLOAD,2022-12-29 12:28:11,15.08840899,0.00032,53.2158,174.2545,42.4343,317.6896,1.7120999999999998e-05,-1.6e-07,0.0,0 STARLINK-3624,1 51773U 22017F   22363.51957939 -.00000016  00000-0  17121-4 0  9993,2 51773  53.2158 174.2545 0003200  42.4343 317.6896 15.08840899 46554,6917.878000000002,95.437,541.956,537.529,0.0
51773.0,STARLINK-3624,PAYLOAD,2022-12-30 04:22:02,15.08849302,0.0003186,53.2162,171.2813,42.4643,317.6595,4.4374e-05,4.18e-06,0.0,0 STARLINK-3624,1 51773U 22017F   22364.18197284  .00000418  00000-0  44374-4 0  9991,2 51773  53.2162 171.2813 0003186  42.4643 317.6595 15.08849302 48118,6917.852,95.437,541.9209999999998,537.513,0.0
51773.0,STARLINK-3624,PAYLOAD,2022-12-30 12:18:58,15.08846775,0.0003225,53.2162,169.7943,42.3211,317.8029,0.00015635,2.201e-05,0.0,0 STARLINK-3624,1 51773U 22017F   22364.51317236  .00002201  00000-0  15635-3 0  9998,2 51773  53.2162 169.7943 0003225  42.3211 317.8029 15.08846775 46706,6917.86,95.437,541.956,537.494,0.0
51773.0,STARLINK-3624,PAYLOAD,2022-12-31 04:12:49,15.0884308,0.0003241,53.2161,166.8207,43.904,316.221,9.9823e-05,1.301e-05,0.0,0 STARLINK-3624,1 51773U 22017F   22365.17557538  .00001301  00000-0  99823-4 0  9994,2 51773  53.2161 166.8207 0003241  43.9040 316.2210 15.08843080 48265,6917.871,95.437,541.9780000000002,537.494,0.0
51773.0,STARLINK-3624,PAYLOAD,2022-12-31 10:34:21,15.08847264,0.0003283999999999,53.2167,165.6313,44.343,315.7825,0.0001281,1.751e-05,0.0,0 STARLINK-3624,1 51773U 22017F   22365.44053200  .00001751  00000-0  12810-3 0  9990,2 51773  53.2167 165.6313 0003284  44.3430 315.7825 15.08847264 46847,6917.858,95.437,541.995,537.451,0.0
51773.0,STARLINK-3624,PAYLOAD,2022-12-31 16:55:54,15.0885226,0.0003305,53.2156,164.4417,44.3045,315.8211,0.00016763,2.381e-05,0.0,0 STARLINK-3624,1 51773U 22017F   22365.70548719  .00002381  00000-0  16763-3 0  9994,2 51773  53.2156 164.4417 0003305  44.3045 315.8211 15.08852260 46889,6917.843000000003,95.437,541.994,537.422,0.0
51773.0,STARLINK-3624,PAYLOAD,2022-12-31 18:31:17,15.088534,0.0003286999999999,53.2159,164.1445,43.9613,316.164,0.00016204,2.292e-05,0.0,0 STARLINK-3624,1 51773U 22017F   22365.77172646  .00002292  00000-0  16204-3 0  9994,2 51773  53.2159 164.1445 0003287  43.9613 316.1640 15.08853400 48356,6917.839,95.437,541.9780000000002,537.431,0.0
51773.0,STARLINK-3624,PAYLOAD,2023-01-01 04:03:36,15.08843932,0.0003437,53.2163,162.3607,44.659,315.4679,2.1382e-05,5.1e-07,0.0,0 STARLINK-3624,1 51773U 22017F   23001.16917098  .00000051  00000-0  21382-4 0  9998,2 51773  53.2163 162.3607 0003437  44.6590 315.4679 15.08843932 48410,6917.868,95.437,542.111,537.356,0.0
51773.0,STARLINK-3624,PAYLOAD,2023-01-01 10:25:09,15.08839774,0.000345,53.2163,161.1714,46.7469,313.3811,-2.9866e-05,-7.64e-06,0.0,0 STARLINK-3624,1 51773U 22017F   23001.43413330 -.00000764  00000-0 -29866-4 0  9996,2 51773  53.2163 161.1714 0003450  46.7469 313.3811 15.08839774 46994,6917.880999999999,95.438,542.133,537.359,0.0
51773.0,STARLINK-3624,PAYLOAD,2023-01-01 16:46:41,15.08837326,0.0003523,53.2169,159.9823,47.051,313.0777,-7.5293e-05,-1.487e-05,0.0,0 STARLINK-3624,1 51773U 22017F   23001.69909529 -.00001487  00000-0 -75293-4 0  9992,2 51773  53.2169 159.9823 0003523  47.0510 313.0777 15.08837326 47033,6917.889,95.438,542.191,537.316,0.0
51773.0,STARLINK-3624,PAYLOAD,2023-01-02 13:26:42,15.08840894,0.0003246,53.2155,156.1159,43.7223,316.4025,0.0001136,1.52e-05,0.0,0 STARLINK-3624,1 51773U 22017F   23002.56021637  .00001520  00000-0  11360-3 0  9994,2 51773  53.2155 156.1159 0003246  43.7223 316.4025 15.08840894 47166,6917.878000000002,95.437,541.988,537.497,0.0
51773.0,STARLINK-3624,PAYLOAD,2023-01-02 16:37:28,15.08843834,0.0003242,53.2156,155.52100000000004,43.978,316.1469,0.00016365,2.317e-05,0.0,0 STARLINK-3624,1 51773U 22017F   23002.69269530  .00002317  00000-0  16365-3 0  9999,2 51773  53.2156 155.5210 0003242  43.9780 316.1469 15.08843834 47182,6917.869000000002,95.437,541.976,537.491,0.0
51773.0,STARLINK-3624,PAYLOAD,2023-01-03 11:42:07,15.08837495,0.0003272,53.2152,151.9526,43.6895,316.4356,0.00021796,3.182e-05,0.0,0 STARLINK-3624,1 51773U 22017F   23003.48758120  .00003182  00000-0  21796-3 0  9990,2 51773  53.2152 151.9526 0003272  43.6895 316.4356 15.08837495 47303,6917.888000000001,95.438,542.0169999999998,537.49,0.0
51773.0,STARLINK-3624,PAYLOAD,2023-01-03 13:17:30,15.08837885,0.0003276,53.2152,151.6552,43.8904,316.2348,0.00021337,3.109e-05,0.0,0 STARLINK-3624,1 51773U 22017F   23003.55382126  .00003109  00000-0  21337-3 0  9997,2 51773  53.2152 151.6552 0003276  43.8904 316.2348 15.08837885 48770,6917.887,95.438,542.018,537.486,0.0
51773.0,STARLINK-3624,PAYLOAD,2023-01-04 09:57:30,15.08839054,0.0003302,53.2154,147.7894,44.1038,316.0217,6.0006e-05,6.66e-06,0.0,0 STARLINK-3624,1 51773U 22017F   23004.41494097  .00000666  00000-0  60006-4 0  9996,2 51773  53.2154 147.7894 0003302  44.1038 316.0217 15.08839054 47445,6917.8830000000025,95.438,542.033,537.464,0.0
51773.0,STARLINK-3624,PAYLOAD,2023-01-04 16:19:02,15.08851013,0.0003368,53.2155,146.6005,44.8667,315.2597,0.00019675,2.845e-05,0.0,0 STARLINK-3624,1 51773U 22017F   23004.67989538  .00002845  00000-0  19675-3 0  9999,2 51773  53.2155 146.6005 0003368  44.8667 315.2597 15.08851013 48942,6917.847,95.437,542.0419999999998,537.382,0.0
51773.0,STARLINK-3624,PAYLOAD,2023-01-05 11:23:39,15.08855431,0.000305,53.2153,143.0319,47.8157,312.3094,0.00016943,2.410000000000001e-05,0.0,0 STARLINK-3624,1 51773U 22017F   23005.47476681  .00002410  00000-0  16943-3 0  9991,2 51773  53.2153 143.0319 0003050  47.8157 312.3094 15.08855431 47604,6917.833000000001,95.437,541.808,537.5880000000002,0.0
51773.0,STARLINK-3624,PAYLOAD,2023-01-05 16:09:49,15.08853128,0.0003253,53.2155,142.1399,43.601000000000006,316.5239,0.00020332,2.95e-05,0.0,0 STARLINK-3624,1 51773U 22017F   23005.67348630  .00002950  00000-0  20332-3 0  9991,2 51773  53.2155 142.1399 0003253  43.6010 316.5239 15.08853128 47632,6917.84,95.437,541.956,537.455,0.0
51773.0,STARLINK-3624,PAYLOAD,2023-01-06 11:14:28,15.0881994,0.000305,53.2163,138.5719,39.1211,321.0002,-0.00037094,-6.185e-05,0.0,0 STARLINK-3624,1 51773U 22017F   23006.46838287 -.00006185  00000-0 -37094-3 0  9990,2 51773  53.2163 138.5719 0003050  39.1211 321.0002 15.08819940 49213,6917.941999999999,95.439,541.9169999999998,537.697,0.0
51773.0,STARLINK-3624,PAYLOAD,2023-01-07 01:32:56,15.08830354,0.0002886,53.2157,135.89600000000002,39.1207,320.9994,5.681699999999999e-06,-1.98e-06,0.0,0 STARLINK-3624,1 51773U 22017F   23007.06454114 -.00000198  00000-0  56817-5 0  9993,2 51773  53.2157 135.8960 0002886  39.1207 320.9994 15.08830354 49305,6917.91,95.438,541.771,537.778,0.0
51773.0,STARLINK-3624,PAYLOAD,2023-01-07 09:29:51,15.08841282,0.0002885,53.2161,134.4083,35.7597,324.3588,9.0557e-05,1.153e-05,0.0,0 STARLINK-3624,1 51773U 22017F   23007.39573551  .00001153  00000-0  90557-4 0  9995,2 51773  53.2161 134.4083 0002885  35.7597 324.3588 15.08841282 49358,6917.876,95.437,541.737,537.746,0.0
51773.0,STARLINK-3624,PAYLOAD,2023-01-07 17:26:47,15.08836901,0.0002934,53.2164,132.9214,35.3576,324.761,3.2547e-05,2.29e-06,0.0,0 STARLINK-3624,1 51773U 22017F   23007.72693936  .00000229  00000-0  32547-4 0  9990,2 51773  53.2164 132.9214 0002934  35.3576 324.7610 15.08836901 47943,6917.89,95.438,541.785,537.725,0.0
51773.0,STARLINK-3624,PAYLOAD,2023-01-08 01:23:43,15.08832341,0.000295,53.2163,131.4349,34.5625,325.5558,0.00011506,1.543e-05,0.0,0 STARLINK-3624,1 51773U 22017F   23008.05814391  .00001543  00000-0  11506-3 0  9998,2 51773  53.2163 131.4349 0002950  34.5625 325.5558 15.08832341 49451,6917.904,95.438,541.81,537.7280000000002,0.0
